GALAXY 33 (G-33)        
1 54026U 22128A   26064.01780892  .00000000  00000+0  00000+0 0  9993
2 54026   0.0175 165.2977 0001884 177.9169  52.9895  1.00273895 12691
GALAXY 34 (G-34)        
1 54027U 22128B   26064.09072645  .00000050  00000+0  00000+0 0  9997
2 54027   0.0130 129.5428 0001376 217.6718  79.2813  1.00273187 12860
GALAXY 31 (G-31)        
1 54243U 22153A   26064.32405672  .00000005  00000+0  00000+0 0  9991
2 54243   0.0114 186.2478 0001490 168.2279 164.2342  1.00272772  6096
GALAXY 32 (G-32)        
1 54244U 22153B   26063.18586578  .00000000  00000+0  00000+0 0  9995
2 54244   0.0222 132.7365 0003004 225.3208 139.8078  1.00267915 12092
GALAXY 35 (G-35)        
1 54741U 22170A   26064.56474796 -.00000169  00000+0  00000+0 0  9994
2 54741   0.0117 191.0403 0002026 154.8561 287.5984  1.00270992 11858
GALAXY 36 (G-36)        
1 54742U 22170B   26064.73084860 -.00000192  00000+0  00000+0 0  9999
2 54742   0.0176 138.8464 0002047 259.4397 299.2650  1.00272473 11735
GALAXY 37 (G-37)        
1 57493U 23112A   26064.62940159  .00000041  00000+0  00000+0 0  9994
2 57493   0.0171 116.1290 0002046 231.8474 274.9512  1.00271705  9507
